[{"OBJECT_NAME":"TIANMU-1 22","OBJECT_ID":"2023-208D","EPOCH":"2026-03-09T22:39:05.738688","MEAN_MOTION":15.29457749,"ECCENTRICITY":0.00031332,"INCLINATION":97.4379,"RA_OF_ASC_NODE":184.9419,"ARG_OF_PERICENTER":351.9312,"MEAN_ANOMALY":8.1877,"EPHEMERIS_TYPE":0,"CLASSIFICATION_TYPE":"U","NORAD_CAT_ID":58663,"ELEMENT_SET_NO":999,"REV_AT_EPOCH":12215,"BSTAR":0.00038239675,"MEAN_MOTION_DOT":0.00010851,"MEAN_MOTION_DDOT":0},{"OBJECT_NAME":"STARLINK-33604","OBJECT_ID":"2025-035U","EPOCH":"2026-03-09T06:53:58.649568","MEAN_MOTION":15.27569526,"ECCENTRICITY":0.00010548,"INCLINATION":42.9968,"RA_OF_ASC_NODE":149.7484,"ARG_OF_PERICENTER":219.7112,"MEAN_ANOMALY":140.3663,"EPHEMERIS_TYPE":0,"CLASSIFICATION_TYPE":"U","NORAD_CAT_ID":63070,"ELEMENT_SET_NO":999,"REV_AT_EPOCH":5965,"BSTAR":0.00092728411,"MEAN_MOTION_DOT":0.00025334,"MEAN_MOTION_DDOT":0}]
